     3.04           NAVIGATION DATA     MIXED               RINEX VERSION / TYPE
TPP                 Reference Data Shop 20250105 142321 UTC PGM / RUN BY / DATE 
gfzrnx-2.1.9        FILE MERGE          20250107 150446 UTC COMMENT             
BDSA   2.8870e-08  2.9800e-08 -1.1920e-07   .0000E+00       IONOSPHERIC CORR    
BDSB   1.5560e+05 -2.1300e+05 -6.5540e+04   .5243E+06       IONOSPHERIC CORR    
GAL    2.8870e-08  2.9800e-08 -1.1920e-07   .0000E+00       IONOSPHERIC CORR    
GPSA   2.8870e-08  2.9800e-08 -1.1920e-07   .0000E+00       IONOSPHERIC CORR    
GPSB   1.5560e+05 -2.1300e+05 -6.5540e+04   .5243E+06       IONOSPHERIC CORR    
GAUT  -.9313225746E-09  .888178420E-15 319488 2347          TIME SYSTEM CORR    
GLUT  -.5122274160E-08  .000000000E+00  86400 2347          TIME SYSTEM CORR    
GPUT  -.9313225746E-09  .888178420E-15 319488 2347          TIME SYSTEM CORR    
    18  2348     1                                          LEAP SECONDS        
                                                            END OF HEADER
G28 2024 12 30 08 00 00 -.522155780345e-03 -.102318153949e-10  .000000000000e+00
      .158000000000e+03  .123750000000e+02  .489163232755e-08  .303596202608e+01
      .668689608574e-06  .456215231679e-03  .547617673874e-05  .515377708054e+04
      .115200000000e+06  .316649675369e-07  .124971471273e+01  .372529029846e-08
      .960976486768e+00  .275218750000e+03  .142176770635e+01 -.804854954011e-08
      .188222125921e-09  .000000000000e+00  .234700000000e+04  .000000000000e+00
      .200000000000e+01  .000000000000e+00 -.931322574615e-08  .670000000000e+03
      .108018000000e+06  .000000000000e+00  .000000000000e+00  .000000000000e+00
G28 2024 12 30 10 00 00 -.522228889167e-03 -.102318153949e-10  .000000000000e+00
      .159000000000e+03  .101875000000e+02  .485627371186e-08 -.219650060155e+01
      .542029738426e-06  .455460394733e-03  .574998557568e-05  .515377859688e+04
      .122400000000e+06 -.335276126862e-07  .124965651200e+01  .409781932831e-07
      .960978088663e+00  .269937500000e+03  .142116494314e+01 -.802390565645e-08
      .245367363393e-09  .000000000000e+00  .234700000000e+04  .000000000000e+00
      .200000000000e+01  .000000000000e+00 -.931322574615e-08  .671000000000e+03
      .115218000000e+06  .000000000000e+00  .000000000000e+00  .000000000000e+00
G28 2024 12 30 12 00 00 -.522302463651e-03 -.102318153949e-10  .000000000000e+00
      .160000000000e+03  .100000000000e+02  .487306012537e-08 -.114694026161e+01
      .484287738800e-06  .455405563116e-03  .571645796299e-05  .515377812767e+04
      .129600000000e+06 -.167638063431e-07  .124959882914e+01 -.167638063431e-07
      .960980136748e+00  .267781250000e+03  .142172394170e+01 -.797604652007e-08
      .262868092368e-09  .000000000000e+00  .234700000000e+04  .000000000000e+00
      .200000000000e+01  .000000000000e+00 -.931322574615e-08  .672000000000e+03
      .122418000000e+06  .000000000000e+00  .000000000000e+00  .000000000000e+00
G28 2024 12 30 14 00 00 -.522375572473e-03 -.101181285572e-10  .000000000000e+00
      .161000000000e+03  .703125000000e+01  .495734935064e-08 -.974320630079e-01
      .532716512680e-06  .455091474578e-03  .574253499508e-05  .515377733612e+04
      .136800000000e+06  .465661287308e-07  .124954102925e+01 -.391155481339e-07
      .960982019524e+00  .267218750000e+03  .142233610123e+01 -.801497671309e-08
      .304298389535e-09  .000000000000e+00  .234700000000e+04  .000000000000e+00
      .200000000000e+01  .000000000000e+00 -.931322574615e-08  .673000000000e+03
      .129618000000e+06  .000000000000e+00  .000000000000e+00  .000000000000e+00
G28 2024 12 30 16 00 00 -.522448681295e-03 -.101181285572e-10  .000000000000e+00
      .162000000000e+03  .818750000000e+01  .499020786219e-08  .952951181510e+00
      .517815351486e-06  .454873195849e-03  .580772757530e-05  .515377686691e+04
      .144000000000e+06 -.111758708954e-07  .124948300699e+01  .298023223877e-07
      .960984550372e+00  .268562500000e+03  .142207403847e+01 -.799354724904e-08
      .376444251843e-09  .000000000000e+00  .234700000000e+04  .000000000000e+00
      .200000000000e+01  .000000000000e+00 -.931322574615e-08  .674000000000e+03
      .136818000000e+06  .000000000000e+00  .000000000000e+00  .000000000000e+00
G28 2024 12 30 18 00 00 -.522521790117e-03 -.101181285572e-10  .000000000000e+00
      .163000000000e+03  .918750000000e+01  .498735060031e-08  .200315100682e+01
      .542029738426e-06  .454803463072e-03  .583939254284e-05  .515377678871e+04
      .151200000000e+06 -.316649675369e-07  .124942544848e+01  .745058059692e-08
      .960987275789e+00  .268750000000e+03  .142199557779e+01 -.799640451092e-08
      .383230248792e-09  .000000000000e+00  .234700000000e+04  .000000000000e+00
      .200000000000e+01  .000000000000e+00 -.931322574615e-08  .675000000000e+03
      .144018000000e+06  .000000000000e+00  .000000000000e+00  .000000000000e+00
G28 2024 12 30 20 00 00 -.522595364600e-03 -.101181285572e-10  .000000000000e+00
      .164000000000e+03  .154687500000e+02  .491913347308e-08  .305223860770e+01
      .590458512306e-06  .454044784419e-03  .585615634918e-05  .515377847290e+04
      .158400000000e+06  .242143869400e-07  .124936744377e+01 -.298023223877e-07
      .960990015834e+00  .267656250000e+03  .142302871980e+01 -.804176354316e-08
      .425017703693e-09  .000000000000e+00  .234700000000e+04  .000000000000e+00
      .200000000000e+01  .000000000000e+00 -.931322574615e-08  .676000000000e+03
      .151218000000e+06  .000000000000e+00  .000000000000e+00  .000000000000e+00
G28 2024 12 30 22 00 00 -.522668473422e-03 -.101181285572e-10  .000000000000e+00
      .165000000000e+03  .117500000000e+02  .477877048354e-08 -.217989024639e+01
      .603497028351e-06  .453040236607e-03  .588968396187e-05  .515378053475e+04
      .165600000000e+06 -.409781932831e-07  .124930924889e+01  .223517417908e-07
      .960993383472e+00  .260843750000e+03  .142209104197e+01 -.801640534403e-08
      .492163357722e-09  .000000000000e+00  .234700000000e+04  .000000000000e+00
      .200000000000e+01  .000000000000e+00 -.931322574615e-08  .677000000000e+03
      .158418000000e+06  .000000000000e+00  .000000000000e+00  .000000000000e+00
G28 2024 12 31 00 00 00 -.522741582245e-03 -.101181285572e-10  .000000000000e+00
      .166000000000e+03  .109062500000e+02  .467876631797e-08 -.113012327367e+01
      .692903995514e-06  .452954089269e-03  .616349279881e-05  .515378025055e+04
      .172800000000e+06  .186264514923e-07  .124925169770e+01 -.353902578354e-07
      .960997365535e+00  .259218750000e+03  .142244118995e+01 -.793318759196e-08
      .509306928964e-09  .000000000000e+00  .234700000000e+04  .000000000000e+00
      .200000000000e+01  .000000000000e+00 -.931322574615e-08  .678000000000e+03
      .165618000000e+06  .000000000000e+00  .000000000000e+00  .000000000000e+00
G29 2024 12 29 23 59 44 -.551689416170e-03  .329691829393e-11  .000000000000e+00
      .000000000000e+00  .157625000000e+03  .421767568312e-08  .276103691254e+01
      .816024839878e-05  .288224196993e-02  .801682472229e-05  .515373272514e+04
      .863840000000e+05 -.167638063431e-07 -.283299931286e+01  .763684511185e-07
      .968559715737e+00  .230093750000e+03  .264474279574e+01 -.781675417061e-08
      .101789954246e-09  .000000000000e+00  .234700000000e+04  .000000000000e+00
      .200000000000e+01  .000000000000e+00 -.977888703346e-08  .000000000000e+00
      .853380000000e+05  .000000000000e+00  .000000000000e+00  .000000000000e+00
G29 2024 12 30 01 59 44 -.551666133106e-03  .329691829393e-11  .000000000000e+00
      .880000000000e+02  .155468750000e+03  .411552857114e-08 -.247186611048e+01
      .812485814095e-05  .288123369682e-02  .775605440140e-05  .515373468971e+04
      .935840000000e+05 -.223517417908e-07 -.283305553426e+01  .931322574616e-08
      .968560766112e+00  .238531250000e+03  .264460263356e+01 -.776675208783e-08
      .126790995640e-09  .000000000000e+00  .234700000000e+04  .000000000000e+00
      .200000000000e+01  .000000000000e+00 -.977888703346e-08  .880000000000e+02
      .864180000000e+05  .000000000000e+00  .000000000000e+00  .000000000000e+00
G29 2024 12 30 04 00 00 -.551642384380e-03  .329691829393e-11  .000000000000e+00
      .910000000000e+02  .139437500000e+03  .412660046090e-08 -.142012214003e+01
      .705756247044e-05  .288192753214e-02  .782124698162e-05  .515373052216e+04
      .100800000000e+06 -.186264514923e-07 -.283311170007e+01 -.111758708954e-07
      .968561659955e+00  .237625000000e+03  .264533423158e+01 -.778103839719e-08
      .135005623526e-09  .000000000000e+00  .234700000000e+04  .000000000000e+00
      .200000000000e+01  .000000000000e+00 -.977888703346e-08  .910000000000e+02
      .936190000000e+05  .000000000000e+00  .000000000000e+00  .000000000000e+00
G29 2024 12 30 06 00 00 -.551618635654e-03  .329691829393e-11  .000000000000e+00
      .920000000000e+02  .130781250000e+03  .398445168269e-08 -.369524572159e+00
      .673532485962e-05  .288333906792e-02  .804103910923e-05  .515373413277e+04
      .108000000000e+06  .223517417908e-07 -.283316757477e+01 -.391155481339e-07
      .968562505522e+00  .226343750000e+03  .264487864085e+01 -.779461039109e-08
      .100361323309e-09  .000000000000e+00  .234700000000e+04  .000000000000e+00
      .200000000000e+01  .000000000000e+00 -.977888703346e-08  .920000000000e+02
      .100818000000e+06  .000000000000e+00  .000000000000e+00  .000000000000e+00
